{"type": "FeatureCollection", "features": [ {"type": "Feature", "properties": {"norad_id": 44622, "name": "GAOFEN-10R", "group": "resource", "lat": 60.58798897340026, "lon": -82.76055803310192, "alt_km": 609.2168079104713, "timestamp": "2025-12-10T05:46:13.455071+00:00", "meta": {"OBJECT_NAME": "GAOFEN-10R", "OBJECT_ID": "2019-066A", "EPOCH": "2025-12-09T21:23:45.973248", "MEAN_MOTION": 14.8277763, "ECCENTRICITY": 0.0008012, "INCLINATION": 98.0276, "RA_OF_ASC_NODE": 291.3867, "ARG_OF_PERICENTER": 49.9015, "MEAN_ANOMALY": 310.2899, "EPHEMERIS_TYPE": 0, "CLASSIFICATION_TYPE": "U", "NORAD_CAT_ID": 44622, "ELEMENT_SET_NO": 999, "REV_AT_EPOCH": 33432, "BSTAR": 0.00037612, "MEAN_MOTION_DOT": 2.988e-05, "MEAN_MOTION_DDOT": 0}, "tle": {"line1": "1 44622U 19066A   25343.89150432  .00002988  00000+0  37612-3 0  9997", "line2": "2 44622  98.0276 291.3867 0008012  49.9015 310.2899 14.82777630334329"}}, "geometry": {"type": "Point", "coordinates": [-82.76055803310192, 60.58798897340026]}}, {"type": "Feature", "properties": {"norad_id": 44804, "name": "CARTOSAT-3", "group": "resource", "lat": -75.43618143104398, "lon": -166.42376116232978, "alt_km": 524.40374640345, "timestamp": "2025-12-10T05:46:13.455081+00:00", "meta": {"OBJECT_NAME": "CARTOSAT-3", "OBJECT_ID": "2019-081A", "EPOCH": "2025-12-09T20:44:17.866752", "MEAN_MOTION": 15.19327559, "ECCENTRICITY": 0.0013965, "INCLINATION": 97.4579, "RA_OF_ASC_NODE": 43.4834, "ARG_OF_PERICENTER": 95.6764, "MEAN_ANOMALY": 264.6064, "EPHEMERIS_TYPE": 0, "CLASSIFICATION_TYPE": "U", "NORAD_CAT_ID": 44804, "ELEMENT_SET_NO": 999, "REV_AT_EPOCH": 33472, "BSTAR": 0.00019509, "MEAN_MOTION_DOT": 4.062e-05, "MEAN_MOTION_DDOT": 0}, "tle": {"line1": "1 44804U 19081A   25343.86409568  .00004062  00000+0  19509-3 0  9990", "line2": "2 44804  97.4579  43.4834 0013965  95.6764 264.6064 15.19327559334724"}}, "geometry": {"type": "Point", "coordinates": [-166.42376116232978, -75.43618143104398]}}, {"type": "Feature", "properties": {"norad_id": 44819, "name": "GAOFEN-12 01", "group": "resource", "lat": -12.133154978807344, "lon": -7.721487662048919, "alt_km": 631.8206217508905, "timestamp": "2025-12-10T05:46:13.455091+00:00", "meta": {"OBJECT_NAME": "GAOFEN-12 01", "OBJECT_ID": "2019-082A", "EPOCH": "2025-12-09T20:05:39.150816", "MEAN_MOTION": 14.8065246, "ECCENTRICITY": 0.0001207, "INCLINATION": 97.8127, "RA_OF_ASC_NODE": 350.1944, "ARG_OF_PERICENTER": 252.4772, "MEAN_ANOMALY": 107.6309, "EPHEMERIS_TYPE": 0, "CLASSIFICATION_TYPE": "U", "NORAD_CAT_ID": 44819, "ELEMENT_SET_NO": 999, "REV_AT_EPOCH": 32607, "BSTAR": 0.00012512, "MEAN_MOTION_DOT": 9.1e-06, "MEAN_MOTION_DDOT": 0}, "tle": {"line1": "1 44819U 19082A   25343.83725869  .00000910  00000+0  12512-3 0  9994", "line2": "2 44819  97.8127 350.1944 0001207 252.4772 107.6309 14.80652460326077"}}, "geometry": {"type": "Point", "coordinates": [-7.721487662048919, -12.133154978807344]}}, {"type": "Feature", "properties": {"norad_id": 44873, "name": "CSG-1", "group": "resource", "lat": 80.79537279700459, "lon": 106.86422065789435, "alt_km": 614.0764719450981, "timestamp": "2025-12-10T05:46:13.455101+00:00", "meta": {"OBJECT_NAME": "CSG-1", "OBJECT_ID": "2019-092A", "EPOCH": "2025-12-09T19:39:57.110400", "MEAN_MOTION": 14.82158523, "ECCENTRICITY": 0.0001455, "INCLINATION": 97.8811, "RA_OF_ASC_NODE": 165.1876, "ARG_OF_PERICENTER": 85.4932, "MEAN_ANOMALY": 274.6448, "EPHEMERIS_TYPE": 0, "CLASSIFICATION_TYPE": "U", "NORAD_CAT_ID": 44873, "ELEMENT_SET_NO": 999, "REV_AT_EPOCH": 32342, "BSTAR": 0.00015196, "MEAN_MOTION_DOT": 1.158e-05, "MEAN_MOTION_DDOT": 0}, "tle": {"line1": "1 44873U 19092A   25343.81941100  .00001158  00000+0  15196-3 0  9997", "line2": "2 44873  97.8811 165.1876 0001455  85.4932 274.6448 14.82158523323420"}}, "geometry": {"type": "Point", "coordinates": [106.86422065789435, 80.79537279700459]}}, {"type": "Feature", "properties": {"norad_id": 46277, "name": "NEMO-HD", "group": "resource", "lat": 79.19230575408993, "lon": 1.7503649450653214, "alt_km": 436.7646280895042, "timestamp": "2025-12-10T05:46:13.455112+00:00", "meta": {"OBJECT_NAME": "NEMO-HD", "OBJECT_ID": "2020-061F", "EPOCH": "2025-12-09T20:03:38.830176", "MEAN_MOTION": 15.40231359, "ECCENTRICITY": 0.0002059, "INCLINATION": 97.221, "RA_OF_ASC_NODE": 42.9705, "ARG_OF_PERICENTER": 59.8696, "MEAN_ANOMALY": 300.2755, "EPHEMERIS_TYPE": 0, "CLASSIFICATION_TYPE": "U", "NORAD_CAT_ID": 46277, "ELEMENT_SET_NO": 999, "REV_AT_EPOCH": 29279, "BSTAR": 0.00039269, "MEAN_MOTION_DOT": 0.00015719, "MEAN_MOTION_DDOT": 0}, "tle": {"line1": "1 46277U 20061F   25343.83586609  .00015719  00000+0  39269-3 0  9991", "line2": "2 46277  97.2210  42.9705 0002059  59.8696 300.2755 15.40231359292799"}}, "geometry": {"type": "Point", "coordinates": [1.7503649450653214, 79.19230575408993]}}, {"type": "Feature", "properties": {"norad_id": 46984, "name": "SENTINEL-6A", "group": "resource", "lat": 65.524704384233, "lon": -90.14217198327181, "alt_km": 1336.4052503066314, "timestamp": "2025-12-10T05:46:13.455122+00:00", "meta": {"OBJECT_NAME": "SENTINEL-6A", "OBJECT_ID": "2020-086A", "EPOCH": "2025-12-09T19:54:23.122656", "MEAN_MOTION": 12.80930509, "ECCENTRICITY": 0.0007732, "INCLINATION": 66.0391, "RA_OF_ASC_NODE": 168.3531, "ARG_OF_PERICENTER": 269.1607, "MEAN_ANOMALY": 90.8522, "EPHEMERIS_TYPE": 0, "CLASSIFICATION_TYPE": "U", "NORAD_CAT_ID": 46984, "ELEMENT_SET_NO": 999, "REV_AT_EPOCH": 23607, "BSTAR": 6.5392e-05, "MEAN_MOTION_DOT": -4.6e-07, "MEAN_MOTION_DDOT": 0}, "tle": {"line1": "1 46984U 20086A   25343.82943429 -.00000046  00000+0  65392-4 0  9994", "line2": "2 46984  66.0391 168.3531 0007732 269.1607  90.8522 12.80930509236076"}}, "geometry": {"type": "Point", "coordinates": [-90.14217198327181, 65.524704384233]}}, {"type": "Feature", "properties": {"norad_id": 48079, "name": "GAOFEN-12 02", "group": "resource", "lat": -1.1936873672005732, "lon": -21.573432671217503, "alt_km": 631.0697133419962, "timestamp": "2025-12-10T05:46:13.455133+00:00", "meta": {"OBJECT_NAME": "GAOFEN-12 02", "OBJECT_ID": "2021-026A", "EPOCH": "2025-12-09T20:02:40.537824", "MEAN_MOTION": 14.80670146, "ECCENTRICITY": 0.000347, "INCLINATION": 97.985, "RA_OF_ASC_NODE": 337.8557, "ARG_OF_PERICENTER": 106.6931, "MEAN_ANOMALY": 253.4662, "EPHEMERIS_TYPE": 0, "CLASSIFICATION_TYPE": "U", "NORAD_CAT_ID": 48079, "ELEMENT_SET_NO": 999, "REV_AT_EPOCH": 25374, "BSTAR": 0.00013287, "MEAN_MOTION_DOT": 9.68e-06, "MEAN_MOTION_DDOT": 0}, "tle": {"line1": "1 48079U 21026A   25343.83519141  .00000968  00000+0  13287-3 0  9994", "line2": "2 48079  97.9850 337.8557 0003470 106.6931 253.4662 14.80670146253742"}}, "geometry": {"type": "Point", "coordinates": [-21.573432671217503, -1.1936873672005732]}}, {"type": "Feature", "properties": {"norad_id": 48268, "name": "PLEIADES NEO 3", "group": "resource", "lat": 56.08150135383459, "lon": 44.80804688246372, "alt_km": 617.9362541623277, "timestamp": "2025-12-10T05:46:13.455146+00:00", "meta": {"OBJECT_NAME": "PLEIADES NEO 3", "OBJECT_ID": "2021-034A", "EPOCH": "2025-12-08T17:51:26.688096", "MEAN_MOTION": 14.81674889, "ECCENTRICITY": 0.00013213, "INCLINATION": 97.8951, "RA_OF_ASC_NODE": 55.2426, "ARG_OF_PERICENTER": 96.866, "MEAN_ANOMALY": 263.2703, "EPHEMERIS_TYPE": 0, "CLASSIFICATION_TYPE": "U", "NORAD_CAT_ID": 48268, "ELEMENT_SET_NO": 999, "REV_AT_EPOCH": 24945, "BSTAR": 2.6372942e-05, "MEAN_MOTION_DOT": 1.55e-06, "MEAN_MOTION_DDOT": 0}, "tle": {"line1": "1 48268U 21034A   25342.74405889  .00000155  00000+0  26373-4 0  9994", "line2": "2 48268  97.8951  55.2426 0001321  96.8660 263.2703 14.81674889249458"}}, "geometry": {"type": "Point", "coordinates": [44.80804688246372, 56.08150135383459]}}, {"type": "Feature", "properties": {"norad_id": 49070, "name": "PLEIADES NEO 4", "group": "resource", "lat": -56.308736553347444, "lon": -135.29976890227664, "alt_km": 631.9302434607844, "timestamp": "2025-12-10T05:46:13.455156+00:00", "meta": {"OBJECT_NAME": "PLEIADES NEO 4", "OBJECT_ID": "2021-073E", "EPOCH": "2025-12-09T14:07:00.443712", "MEAN_MOTION": 14.81679595, "ECCENTRICITY": 0.0001363, "INCLINATION": 97.8947, "RA_OF_ASC_NODE": 56.0703, "ARG_OF_PERICENTER": 89.0853, "MEAN_ANOMALY": 271.0516, "EPHEMERIS_TYPE": 0, "CLASSIFICATION_TYPE": "U", "NORAD_CAT_ID": 49070, "ELEMENT_SET_NO": 999, "REV_AT_EPOCH": 23329, "BSTAR": 7.8728e-05, "MEAN_MOTION_DOT": 5.68e-06, "MEAN_MOTION_DDOT": 0}, "tle": {"line1": "1 49070U 21073E   25343.58819958  .00000568  00000+0  78728-4 0  9997", "line2": "2 49070  97.8947  56.0703 0001363  89.0853 271.0516 14.81679595233299"}}, "geometry": {"type": "Point", "coordinates": [-135.29976890227664, -56.308736553347444]}}, {"type": "Feature", "properties": {"norad_id": 49260, "name": "LANDSAT 9", "group": "resource", "lat": 64.28620474833194, "lon": -110.16685583321039, "alt_km": 695.455274556939, "timestamp": "2025-12-10T05:46:13.455166+00:00", "meta": {"OBJECT_NAME": "LANDSAT 9", "OBJECT_ID": "2021-088A", "EPOCH": "2025-12-09T11:07:07.369536", "MEAN_MOTION": 14.57125619, "ECCENTRICITY": 0.00011158, "INCLINATION": 98.2098, "RA_OF_ASC_NODE": 51.6218, "ARG_OF_PERICENTER": 94.4742, "MEAN_ANOMALY": 265.6584, "EPHEMERIS_TYPE": 0, "CLASSIFICATION_TYPE": "U", "NORAD_CAT_ID": 49260, "ELEMENT_SET_NO": 999, "REV_AT_EPOCH": 22337, "BSTAR": 0.00019721256, "MEAN_MOTION_DOT": 8.44e-06, "MEAN_MOTION_DDOT": 0}, "tle": {"line1": "1 49260U 21088A   25343.46327974  .00000844  00000+0  19721-3 0  9997", "line2": "2 49260  98.2098  51.6218 0001115  94.4742 265.6584 14.57125619223374"}}, "geometry": {"type": "Point", "coordinates": [-110.16685583321039, 64.28620474833194]}}]}